{
    "links": {
        "self": "http://www.neowsapp.com/rest/v1/neo/54016915?api_key=iIulBulltgU6a56xZRHN4H3l9WmuAYTsLGpBGhQ2"
    },
    "id": "54016915",
    "neo_reference_id": "54016915",
    "name": "(2020 HN9)",
    "designation": "2020 HN9",
    "nasa_jpl_url": "http://ssd.jpl.nasa.gov/sbdb.cgi?sstr=54016915",
    "absolute_magnitude_h": 25.243,
    "estimated_diameter": {
        "kilometers": {
            "estimated_diameter_min": 0.0237659389,
            "estimated_diameter_max": 0.053142255
        },
        "meters": {
            "estimated_diameter_min": 23.765938919,
            "estimated_diameter_max": 53.1422549721
        },
        "miles": {
            "estimated_diameter_min": 0.0147674652,
            "estimated_diameter_max": 0.0330210561
        },
        "feet": {
            "estimated_diameter_min": 77.9722430431,
            "estimated_diameter_max": 174.3512358025
        }
    },
    "is_potentially_hazardous_asteroid": false,
    "close_approach_data": [
        {
            "close_approach_date": "2020-05-02",
            "close_approach_date_full": "2020-May-02 13:17",
            "epoch_date_close_approach": 1588425420000,
            "relative_velocity": {
                "kilometers_per_second": "12.239068367",
                "kilometers_per_hour": "44060.6461211273",
                "miles_per_hour": "27377.5720300971"
            },
            "miss_distance": {
                "astronomical": "0.0384605668",
                "lunar": "14.9611604852",
                "kilometers": "5753618.872272716",
                "miles": "3575132.9861108408"
            },
            "orbiting_body": "Earth"
        }
    ],
    "orbital_data": {
        "orbit_id": "1",
        "orbit_determination_date": "2020-04-30 15:12:05",
        "first_observation_date": "2020-04-21",
        "last_observation_date": "2020-04-30",
        "data_arc_in_days": 9,
        "observations_used": 17,
        "orbit_uncertainty": "9",
        "minimum_orbit_intersection": ".0211346",
        "jupiter_tisserand_invariant": "3.344",
        "epoch_osculation": "2458962.5",
        "eccentricity": ".5889659505073838",
        "semi_major_axis": "2.282329010737135",
        "inclination": "6.1603767543734",
        "ascending_node_longitude": "57.59018997034926",
        "orbital_period": "1259.406129871871",
        "perihelion_distance": ".9381149355577612",
        "perihelion_argument": "203.4414680924377",
        "aphelion_distance": "3.626543085916508",
        "perihelion_time": "2459000.763838438423",
        "mean_anomaly": "349.0623195241762",
        "mean_motion": ".2858490136431412",
        "equinox": "J2000",
        "orbit_class": {
            "orbit_class_type": "APO",
            "orbit_class_description": "Near-Earth asteroid orbits which cross the Earth’s orbit similar to that of 1862 Apollo",
            "orbit_class_range": "a (semi-major axis) > 1.0 AU; q (perihelion) < 1.017 AU"
        }
    },
    "is_sentry_object": false
}